STARLINK-5774           
1 56029U 23042AV  26195.30999845 -.00000843  00000+0 -21116-4 0  9994
2 56029  43.0064  49.8632 0002145 263.6015  96.4593 15.27573240182405
STARLINK-5781           
1 56030U 23042AW  26195.32798866 -.00000265  00000+0 -10491-6 0  9992
2 56030  43.0058  49.9936 0001724 272.0974  87.9680 15.27576785182407
STARLINK-5785           
1 56031U 23042AX  26195.77413111 -.00000057  00000+0  74594-5 0  9990
2 56031  43.0021  47.3319 0001292 274.7267  85.3437 15.27573596182475
STARLINK-5786           
1 56032U 23042AY  26195.01518858  .00000082  00000+0  12508-4 0  9995
2 56032  43.0029  51.9457 0001467 257.8813 102.1874 15.27578176182350
STARLINK-5782           
1 56034U 23042BA  26195.02289783 -.00000069  00000+0  70332-5 0  9996
2 56034  43.0004  52.0035 0002018 251.2516 108.8117 15.27573252182353
STARLINK-5792           
1 56035U 23042BB  26195.78955523 -.00000678  00000+0 -15122-4 0  9994
2 56035  43.0050  47.4393 0001318 272.7780  87.2921 15.27571448182474
STARLINK-5790           
1 56036U 23042BC  26193.96772074 -.00000641  00000+0 -13763-4 0  9990
2 56036  43.0033  57.8262 0001876 248.0936 111.9716 15.27575219182190
STARLINK-5758           
1 56037U 23042BD  26195.54906294 -.00000425  00000+0 -59195-5 0  9990
2 56037  43.0044  34.3162 0001679 272.1175  87.9484 15.27572668182601
STARLINK-5793           
1 56038U 23042BE  26194.96522449 -.00000001  00000+0  94998-5 0  9991
2 56038  43.0030  52.4209 0000896 248.3655 111.7102 15.27576321182342
STARLINK-5795           
1 56039U 23042BF  26193.01697122 -.00000144  00000+0  43081-5 0  9993
2 56039  43.0039  48.8477 0001867 253.4467 106.6179 15.27584630182210
STARLINK-5798           
1 56040U 23042BG  26194.98241751 -.00000081  00000+0  66091-5 0  9991
2 56040  43.0085  37.7859 0002714 258.8783 101.1764 15.27576223182518
STARLINK-5800           
1 56041U 23042BH  26195.53700097 -.00000092  00000+0  61839-5 0  9994
2 56041  43.0042  37.6176 0001079 266.0140  94.0588 15.27572012182565
ONEWEB-0537             
1 56046U 23043A   26195.62950618 -.00000084  00000+0 -25392-3 0  9990
2 56046  87.9080 223.3202 0002171  89.1200 271.0179 13.16593796162578
ONEWEB-0538             
1 56047U 23043B   26195.62317008  .00000020  00000+0  18286-4 0  9994
2 56047  87.9084 223.3239 0002339  93.7687 266.3711 13.16594164162589
ONEWEB-0546             
1 56048U 23043C   26195.61050348  .00000152  00000+0  36525-3 0  9996
2 56048  87.9083 223.3266 0002274  78.9272 281.2114 13.16594343162573
ONEWEB-0547             
1 56049U 23043D   26195.65021602  .00000037  00000+0  58503-4 0  9995
2 56049  87.9241 238.5091 0002220 101.9706 258.1677 13.21827047161857
ONEWEB-0548             
1 56050U 23043E   26195.63503481 -.00000009  00000+0 -57770-4 0  9991
2 56050  87.9078 223.3177 0001614  91.5212 268.6104 13.16594923162575
ONEWEB-0549             
1 56051U 23043F   26195.64433356 -.00000005  00000+0 -42641-4 0  9993
2 56051  87.9233 238.5158 0002465  98.4364 261.7049 13.21826989161853
ONEWEB-0550             
1 56052U 23043G   26195.63088713  .00000019  00000+0  14023-4 0  9992
2 56052  87.9236 238.5165 0001884  99.9366 260.1980 13.21826804161850
ONEWEB-0551             
1 56053U 23043H   26195.61193529  .00000158  00000+0  38514-3 0  9997
2 56053  87.8983 253.7621 0002370 102.4739 257.6657 13.15547557160006
ONEWEB-0552             
1 56054U 23043J   26195.62582708  .00000076  00000+0  15296-3 0  9991
2 56054  87.9231 238.5222 0002093 101.9744 258.1624 13.21826124161855
ONEWEB-0553             
1 56055U 23043K   26195.61683610  .00000126  00000+0  29668-3 0  9999
2 56055  87.9081 223.3255 0002051  82.5872 277.5492 13.16594317162586
ONEWEB-0554             
1 56056U 23043L   26195.60417289  .00000114  00000+0  26492-3 0  9995
2 56056  87.9077 223.3370 0001521  93.1556 266.9749 13.16594232162569
ONEWEB-0555             
1 56057U 23043M   26195.64216521 -.00000103  00000+0 -30321-3 0  9992
2 56057  87.9080 223.3188 0002264  78.8642 281.2743 13.16592880162574
ONEWEB-0557             
1 56058U 23043N   26195.58041716  .00000004  00000+0 -23700-4 0  9991
2 56058  87.9080 223.3401 0001340  56.4491 303.6768 13.16593719162568
ONEWEB-0558             
1 56059U 23043P   26195.61910581  .00000033  00000+0  49567-4 0  9991
2 56059  87.9236 238.5192 0002437  95.8226 264.3186 13.21825627161869
ONEWEB-0559             
1 56060U 23043Q   26195.60732938  .00000093  00000+0  19402-3 0  9990
2 56060  87.9237 238.5171 0002221 100.8733 259.2651 13.21824041161870
ONEWEB-0566             
1 56061U 23043R   26195.60060191  .00000078  00000+0  15838-3 0  9998
2 56061  87.9238 238.5160 0002324 103.2377 256.9016 13.21824140161852
ONEWEB-0568             
1 56062U 23043S   26195.59783505  .00000061  00000+0  12540-3 0  9997
2 56062  87.9078 223.3263 0002134  86.1387 273.9988 13.16595339162587
ONEWEB-0574             
1 56063U 23043T   26195.66958368  .00000064  00000+0  12283-3 0  9994
2 56063  87.9241 238.5073 0001887  94.4407 265.6942 13.21825906161901
ONEWEB-0575             
1 56064U 23043U   26195.59149682  .00000012  00000+0 -34487-5 0  9994
2 56064  87.9076 223.3241 0001781  84.7435 275.3899 13.16594907162574
ONEWEB-0576             
1 56065U 23043V   26195.57249065 -.00000013  00000+0 -68451-4 0  9998
2 56065  87.9083 223.3360 0001883  88.5581 271.5766 13.16595389162567
ONEWEB-0577             
1 56066U 23043W   26195.57883212  .00000019  00000+0  15688-4 0  9995
2 56066  87.9080 223.3326 0001329  81.8539 278.2743 13.16595933162598
ONEWEB-0578             
1 56067U 23043X   26195.65612475  .00000043  00000+0  73658-4 0  9994
2 56067  87.9240 238.5062 0002102  88.9102 271.2273 13.21826567161862
ONEWEB-0579             
1 56068U 23043Y   26195.57199214 -.00000023  00000+0 -87555-4 0  9998
2 56068  87.9242 238.5216 0002103 103.6983 256.4385 13.21827672161866
ONEWEB-0581             
1 56069U 23043Z   26195.58516405  .00000013  00000+0 -50828-6 0  9998
2 56069  87.9073 223.3419 0001516  89.0952 271.0353 13.16595100162564
ONEWEB-0609             
1 56070U 23043AA  26195.63807742 -.00000127  00000+0 -37186-3 0  9999
2 56070  87.8985 253.7414 0002175  97.9393 262.1984 13.15547062160043
ONEWEB-0613             
1 56071U 23043AB  26195.71175994 -.00000002  00000+0 -38785-4 0  9995
2 56071  87.8985 253.7392 0002219 105.1552 254.9824 13.15548417160055
ONEWEB-0630             
1 56072U 23043AC  26195.70700284  .00000046  00000+0  87807-4 0  9996
2 56072  87.8993 253.7134 0002150 104.9073 255.2296 13.15548822160044
ONEWEB-0632             
1 56073U 23043AD  26195.70225881  .00000074  00000+0  16379-3 0  9998
2 56073  87.8988 253.7311 0001882  99.1536 260.9807 13.15547610160041
ONEWEB-0633             
1 56074U 23043AE  26195.69591928  .00000127  00000+0  30315-3 0  9990
2 56074  87.8995 253.7101 0002380 106.2503 253.8889 13.15548672160023
ONEWEB-0634             
1 56075U 23043AF  26195.60560249  .00000149  00000+0  36169-3 0  9991
2 56075  87.8983 253.7667 0002288  92.6223 267.5169 13.15547813160009
ONEWEB-0635             
1 56076U 23043AG  26195.67690296  .00000184  00000+0  45560-3 0  9999
2 56076  87.8991 253.7171 0001785  97.8968 262.2365 13.15547742160048
ONEWEB-0636             
1 56077U 23043AH  26195.66897463 -.00000035  00000+0 -12707-3 0  9998
2 56077  87.8990 253.7242 0001882  96.7705 263.3639 13.15548181160024
ONEWEB-0637             
1 56078U 23043AJ  26195.66263949 -.00000089  00000+0 -27181-3 0  9996
2 56078  87.8982 253.7401 0001974  90.1250 270.0106 13.15548375160049
ONEWEB-0647             
1 56079U 23043AK  26195.65788410 -.00000180  00000+0 -51126-3 0  9999
2 56079  87.8983 253.7540 0001973 101.3453 258.7899 13.15549252160030
ONEWEB-0651             
1 56080U 23043AL  26195.80525087 -.00000012  00000+0 -66417-4 0  9991
2 56080  87.8984 253.7175 0001860  93.2868 266.8475 13.15548105161252
ONEWEB-0718             
1 56081U 23043AM  26195.64837657 -.00000109  00000+0 -32370-3 0  9990
2 56081  87.8989 253.7293 0002540  93.0906 267.0515 13.15549283160048
STARLINK-6109           
1 56094U 23046B   26195.34294459 -.00000557  00000+0 -10708-4 0  9990
2 56094  43.0011 166.1072 0001028 278.8385  81.2350 15.27574742181407
STARLINK-6090           
1 56095U 23046C   26195.33523478 -.00000692  00000+0 -15624-4 0  9998
2 56095  43.0031 166.0517 0001294 272.1227  87.9477 15.27575032181406
STARLINK-6089           
1 56096U 23046D   26195.28141184 -.00000549  00000+0 -10435-4 0  9999
2 56096  43.0023 166.5033 0001553 259.4130 100.6547 15.27575378181397
STARLINK-6077           
1 56097U 23046E   26195.20014688  .00000127  00000+0  14161-4 0  9990
2 56097  43.0026 119.8179 0001468 268.3924  91.6759 15.27574630181921
STARLINK-6088           
1 56098U 23046F   26195.27370581 -.00000461  00000+0 -72270-5 0  9994
2 56098  43.0023 166.4502 0001259 263.1541  96.9167 15.27573615181386
STARLINK-6076           
1 56100U 23046H   26195.39547767  .00000817  00000+0  39216-4 0  9998
2 56100  43.0020 165.6455 0001524 238.2853 121.7850 15.27566899181415
STARLINK-6095           
1 56101U 23046J   26195.33395066 -.00000203  00000+0  21323-5 0  9997
2 56101  43.0026 166.0351 0001358 277.7049  82.3649 15.27576339181409
STARLINK-6075           
1 56102U 23046K   26195.28400026 -.00001764  00000+0 -54603-4 0  9995
2 56102  43.0043 166.5137 0001288 270.2101  89.8603 15.27568184181394
STARLINK-6096           
1 56103U 23046L   26195.27627405 -.00000572  00000+0 -11283-4 0  9990
2 56103  43.0022 166.4629 0000995 252.9797 107.0946 15.27574923181390
STARLINK-6062           
1 56104U 23046M   26195.27241489 -.00000655  00000+0 -14295-4 0  9993
2 56104  42.9990 166.4372 0001797 256.6932 103.3719 15.27573952181399
STARLINK-6066           
1 56105U 23046N   26195.37380299  .00008579  00000+0  32076-3 0  9995
2 56105  43.0019 166.3238 0002718   1.2242 358.8616 15.27594949181400
